start=new Date('2021-10-19T00:00:00.000Z').valueOf();
sats=[{"CLASSIFICATION_TYPE":"U","NORAD_CAT_ID":"45050","TIME_SYSTEM":"UTC","ELEMENT_SET_NO":"999","MEAN_ANOMALY":"296.0861","ARG_OF_PERICENTER":"64.0266","REV_AT_EPOCH":"9480","OBJECT_ID":"2020-006G","INCLINATION":"53.0533","DECAY_DATE":null,"RCS_SIZE":"LARGE","APOAPSIS":"548.141","TLE_LINE2":"2 45050  53.0533 284.1249 0001350  64.0266 296.0861 15.06402358 94805","TLE_LINE1":"1 45050U 20006G   21291.38954057  .00002082  00000-0  15862-3 0  9995","PERIOD":"95.592","SEMIMAJOR_AXIS":"6925.341","COUNTRY_CODE":"US","EPOCH":"2021-10-18T09:20:56.305248","BSTAR":"0.00015862000000","CENTER_NAME":"EARTH","LAUNCH_DATE":"2020-01-29","RA_OF_ASC_NODE":"284.1249","PERIAPSIS":"546.271","MEAN_ELEMENT_THEORY":"SGP4","FILE":"3170121","SITE":"AFETR","MEAN_MOTION_DDOT":"0.0000000000000","MEAN_MOTION_DOT":"0.00002082","GP_ID":"187503007","ECCENTRICITY":"0.00013500","OBJECT_TYPE":"PAYLOAD","OBJECT_NAME":"STARLINK-1140","REF_FRAME":"TEME","EPHEMERIS_TYPE":"0","MEAN_MOTION":"15.06402358"},{"EPOCH":"2021-10-18T17:12:44.900640","BSTAR":"0.00039513000000","COUNTRY_CODE":"US","SEMIMAJOR_AXIS":"6925.015","PERIOD":"95.585","MEAN_ELEMENT_THEORY":"SGP4","PERIAPSIS":"546.078","RA_OF_ASC_NODE":"282.6374","LAUNCH_DATE":"2020-01-29","CENTER_NAME":"EARTH","GP_ID":"187534399","ECCENTRICITY":"0.00011570","MEAN_MOTION_DDOT":"0.0000000000000","MEAN_MOTION_DOT":"0.00005626","SITE":"AFETR","FILE":"3170620","MEAN_MOTION":"15.06508940","EPHEMERIS_TYPE":"0","REF_FRAME":"TEME","OBJECT_NAME":"STARLINK-1141","OBJECT_TYPE":"PAYLOAD","NORAD_CAT_ID":"45051","CLASSIFICATION_TYPE":"U","ARG_OF_PERICENTER":"75.3009","MEAN_ANOMALY":"284.8108","TIME_SYSTEM":"UTC","ELEMENT_SET_NO":"999","RCS_SIZE":"LARGE","DECAY_DATE":null,"INCLINATION":"53.0522","REV_AT_EPOCH":"9485","OBJECT_ID":"2020-006H","TLE_LINE1":"1 45051U 20006H   21291.71718635  .00005626  00000-0  39513-3 0  9999","TLE_LINE2":"2 45051  53.0522 282.6374 0001157  75.3009 284.8108 15.06508940 94859","APOAPSIS":"547.681"},{"ECCENTRICITY":"0.00014570","GP_ID":"187502008","MEAN_MOTION_DDOT":"0.0000000000000","MEAN_MOTION_DOT":"-0.00000814","SITE":"AFETR","FILE":"3170121","MEAN_MOTION":"15.06391807","EPHEMERIS_TYPE":"0","REF_FRAME":"TEME","OBJECT_NAME":"STARLINK-1148","OBJECT_TYPE":"PAYLOAD","COUNTRY_CODE":"US","EPOCH":"2021-10-18T09:31:33.837888","BSTAR":"-0.00003579200000","SEMIMAJOR_AXIS":"6925.374","PERIOD":"95.593","MEAN_ELEMENT_THEORY":"SGP4","RA_OF_ASC_NODE":"284.0916","PERIAPSIS":"546.230","CENTER_NAME":"EARTH","LAUNCH_DATE":"2020-01-29","RCS_SIZE":"LARGE","INCLINATION":"53.0536","DECAY_DATE":null,"OBJECT_ID":"2020-006J","REV_AT_EPOCH":"9480","TLE_LINE2":"2 45052  53.0536 284.0916 0001457  68.5761 291.5384 15.06391807 94803","TLE_LINE1":"1 45052U 20006J   21291.39691942 -.00000814  00000-0 -35792-4 0  9997","APOAPSIS":"548.248","NORAD_CAT_ID":"45052","CLASSIFICATION_TYPE":"U","ARG_OF_PERICENTER":"68.5761","MEAN_ANOMALY":"291.5384","TIME_SYSTEM":"UTC","ELEMENT_SET_NO":"999"},{"SITE":"AFETR","FILE":"3170121","ECCENTRICITY":"0.00009450","GP_ID":"187502760","MEAN_MOTION_DDOT":"0.0000000000000","MEAN_MOTION_DOT":"0.00004111","OBJECT_NAME":"STARLINK-1155","OBJECT_TYPE":"PAYLOAD","MEAN_MOTION":"15.07268513","REF_FRAME":"TEME","EPHEMERIS_TYPE":"0","SEMIMAJOR_AXIS":"6922.688","PERIOD":"95.537","COUNTRY_CODE":"US","EPOCH":"2021-10-18T11:50:39.803136","BSTAR":"0.00028801000000","CENTER_NAME":"EARTH","LAUNCH_DATE":"2020-01-29","MEAN_ELEMENT_THEORY":"SGP4","RA_OF_ASC_NODE":"282.1139","PERIAPSIS":"543.899","REV_AT_EPOCH":"9482","OBJECT_ID":"2020-006K","RCS_SIZE":"LARGE","INCLINATION":"52.9995","DECAY_DATE":null,"APOAPSIS":"545.207","TLE_LINE2":"2 45053  52.9995 282.1139 0000945 113.8051 246.3036 15.07268513 94826","TLE_LINE1":"1 45053U 20006K   21291.49351624  .00004111  00000-0  28801-3 0  9993","CLASSIFICATION_TYPE":"U","NORAD_CAT_ID":"45053","TIME_SYSTEM":"UTC","ELEMENT_SET_NO":"999","ARG_OF_PERICENTER":"113.8051","MEAN_ANOMALY":"246.3036"},{"ARG_OF_PERICENTER":"66.4386","MEAN_ANOMALY":"293.6757","ELEMENT_SET_NO":"999","TIME_SYSTEM":"UTC","NORAD_CAT_ID":"45054","CLASSIFICATION_TYPE":"U","TLE_LINE2":"2 45054  53.0556 283.8002 0001458  66.4386 293.6757 15.06413190 94819","TLE_LINE1":"1 45054U 20006L   21291.45958457  .00004481  00000-0  31940-3 0  9995","APOAPSIS":"548.183","INCLINATION":"53.0556","DECAY_DATE":null,"RCS_SIZE":"LARGE","REV_AT_EPOCH":"9481","OBJECT_ID":"2020-006L","RA_OF_ASC_NODE":"283.8002","PERIAPSIS":"546.163","MEAN_ELEMENT_THEORY":"SGP4","CENTER_NAME":"EARTH","LAUNCH_DATE":"2020-01-29","COUNTRY_CODE":"US","BSTAR":"0.00031940000000","EPOCH":"2021-10-18T11:01:48.106848","PERIOD":"95.591","SEMIMAJOR_AXIS":"6925.308","REF_FRAME":"TEME","EPHEMERIS_TYPE":"0","MEAN_MOTION":"15.06413190","OBJECT_TYPE":"PAYLOAD","OBJECT_NAME":"STARLINK-1156","MEAN_MOTION_DOT":"0.00004481","MEAN_MOTION_DDOT":"0.0000000000000","GP_ID":"187502508","ECCENTRICITY":"0.00014580","FILE":"3170121","SITE":"AFETR"},{"COUNTRY_CODE":"US","BSTAR":"0.00001640000000","EPOCH":"2021-10-18T11:23:01.554720","PERIOD":"95.592","SEMIMAJOR_AXIS":"6925.341","PERIAPSIS":"546.226","RA_OF_ASC_NODE":"283.7317","MEAN_ELEMENT_THEORY":"SGP4","CENTER_NAME":"EARTH","LAUNCH_DATE":"2020-01-29","MEAN_MOTION_DOT":"-0.00000037","MEAN_MOTION_DDOT":"0.0000000000000","ECCENTRICITY":"0.00014150","GP_ID":"187501259","FILE":"3170121","SITE":"AFETR","REF_FRAME":"TEME","EPHEMERIS_TYPE":"0","MEAN_MOTION":"15.06402418","OBJECT_TYPE":"PAYLOAD","OBJECT_NAME":"STARLINK-1159","NORAD_CAT_ID":"45057","CLASSIFICATION_TYPE":"U","ARG_OF_PERICENTER":"74.2157","MEAN_ANOMALY":"285.8988","TIME_SYSTEM":"UTC","ELEMENT_SET_NO":"999","INCLINATION":"53.0536","DECAY_DATE":null,"RCS_SIZE":"LARGE","REV_AT_EPOCH":"9482","OBJECT_ID":"2020-006P","TLE_LINE2":"2 45057  53.0536 283.7317 0001415  74.2157 285.8988 15.06402418 94825","TLE_LINE1":"1 45057U 20006P   21291.47432355 -.00000037  00000-0  16400-4 0  9993","APOAPSIS":"548.186"},{"RA_OF_ASC_NODE":"283.7760","PERIAPSIS":"546.005","MEAN_ELEMENT_THEORY":"SGP4","LAUNCH_DATE":"2020-01-29","CENTER_NAME":"EARTH","BSTAR":"0.00027057000000","EPOCH":"2021-10-18T11:12:25.863264","COUNTRY_CODE":"US","SEMIMAJOR_AXIS":"6925.334","PERIOD":"95.592","REF_FRAME":"TEME","EPHEMERIS_TYPE":"0","MEAN_MOTION":"15.06404730","OBJECT_TYPE":"PAYLOAD","OBJECT_NAME":"STARLINK-1162","MEAN_MOTION_DOT":"0.00003751","MEAN_MOTION_DDOT":"0.0000000000000","ECCENTRICITY":"0.00017240","GP_ID":"187501509","FILE":"3170121","SITE":"AFETR","MEAN_ANOMALY":"288.0777","ARG_OF_PERICENTER":"72.0399","ELEMENT_SET_NO":"999","TIME_SYSTEM":"UTC","NORAD_CAT_ID":"45058","CLASSIFICATION_TYPE":"U","TLE_LINE1":"1 45058U 20006Q   21291.46696601  .00003751  00000-0  27057-3 0  9993","TLE_LINE2":"2 45058  53.0537 283.7760 0001724  72.0399 288.0777 15.06404730 94826","APOAPSIS":"548.393","DECAY_DATE":null,"INCLINATION":"53.0537","RCS_SIZE":"LARGE","OBJECT_ID":"2020-006Q","REV_AT_EPOCH":"9482"},{"BSTAR":"0.00016801000000","EPOCH":"2021-10-18T06:57:41.025024","COUNTRY_CODE":"US","PERIOD":"95.593","SEMIMAJOR_AXIS":"6925.379","MEAN_ELEMENT_THEORY":"SGP4","PERIAPSIS":"546.193","RA_OF_ASC_NODE":"284.5621","LAUNCH_DATE":"2020-01-29","CENTER_NAME":"EARTH","GP_ID":"187502261","ECCENTRICITY":"0.00015180","MEAN_MOTION_DDOT":"0.0000000000000","MEAN_MOTION_DOT":"0.00002221","SITE":"AFETR","FILE":"3170121","MEAN_MOTION":"15.06390095","REF_FRAME":"TEME","EPHEMERIS_TYPE":"0","OBJECT_NAME":"STARLINK-1165","OBJECT_TYPE":"PAYLOAD","NORAD_CAT_ID":"45059","CLASSIFICATION_TYPE":"U","ARG_OF_PERICENTER":"63.2129","MEAN_ANOMALY":"296.9016","ELEMENT_SET_NO":"999","TIME_SYSTEM":"UTC","RCS_SIZE":"LARGE","DECAY_DATE":null,"INCLINATION":"53.0546","OBJECT_ID":"2020-006R","REV_AT_EPOCH":"9479","TLE_LINE1":"1 45059U 20006R   21291.29005816  .00002221  00000-0  16801-3 0  9993","TLE_LINE2":"2 45059  53.0546 284.5621 0001518  63.2129 296.9016 15.06390095 94794","APOAPSIS":"548.295"},{"DECAY_DATE":null,"INCLINATION":"53.0540","RCS_SIZE":"LARGE","REV_AT_EPOCH":"9481","OBJECT_ID":"2020-006S","TLE_LINE1":"1 45060U 20006S   21291.41906262  .00001888  00000-0  14563-3 0  9995","TLE_LINE2":"2 45060  53.0540 283.9915 0001360  75.0369 285.0770 15.06391223 94814","APOAPSIS":"548.182","NORAD_CAT_ID":"45060","CLASSIFICATION_TYPE":"U","ARG_OF_PERICENTER":"75.0369","MEAN_ANOMALY":"285.0770","ELEMENT_SET_NO":"999","TIME_SYSTEM":"UTC","MEAN_MOTION_DDOT":"0.0000000000000","MEAN_MOTION_DOT":"0.00001888","GP_ID":"187503008","ECCENTRICITY":"0.00013600","FILE":"3170121","SITE":"AFETR","REF_FRAME":"TEME","EPHEMERIS_TYPE":"0","MEAN_MOTION":"15.06391223","OBJECT_TYPE":"PAYLOAD","OBJECT_NAME":"STARLINK-1166","EPOCH":"2021-10-18T10:03:27.010368","BSTAR":"0.00014563000000","COUNTRY_CODE":"US","SEMIMAJOR_AXIS":"6925.375","PERIOD":"95.593","PERIAPSIS":"546.299","RA_OF_ASC_NODE":"283.9915","MEAN_ELEMENT_THEORY":"SGP4","LAUNCH_DATE":"2020-01-29","CENTER_NAME":"EARTH"},{"GP_ID":"187501759","ECCENTRICITY":"0.00013810","MEAN_MOTION_DOT":"0.00000090","MEAN_MOTION_DDOT":"0.0000000000000","SITE":"AFETR","FILE":"3170121","MEAN_MOTION":"15.06395373","EPHEMERIS_TYPE":"0","REF_FRAME":"TEME","OBJECT_NAME":"STARLINK-1169","OBJECT_TYPE":"PAYLOAD","BSTAR":"0.00002491400000","EPOCH":"2021-10-18T11:49:34.063968","COUNTRY_CODE":"US","SEMIMAJOR_AXIS":"6925.363","PERIOD":"95.592","MEAN_ELEMENT_THEORY":"SGP4","PERIAPSIS":"546.271","RA_OF_ASC_NODE":"283.6582","LAUNCH_DATE":"2020-01-29","CENTER_NAME":"EARTH","RCS_SIZE":"LARGE","DECAY_DATE":null,"INCLINATION":"53.0549","OBJECT_ID":"2020-006T","REV_AT_EPOCH":"9482","TLE_LINE1":"1 45061U 20006T   21291.49275537  .00000090  00000-0  24914-4 0  9994","TLE_LINE2":"2 45061  53.0549 283.6582 0001381  74.9741 285.1400 15.06395373 94828","APOAPSIS":"548.184","NORAD_CAT_ID":"45061","CLASSIFICATION_TYPE":"U","ARG_OF_PERICENTER":"74.9741","MEAN_ANOMALY":"285.1400","ELEMENT_SET_NO":"999","TIME_SYSTEM":"UTC"}];
